STARLINK-1123           
1 44930U 20001S   26068.04844908  .00013034  00000+0  48008-3 0  9995
2 44930  53.1509 348.0782 0001603  74.6386 285.4791 15.28178758339778
FLOCK 4G-2              
1 62661U 25009BE  26068.66207492  .00013752  00000+0  51068-3 0  9995
2 62661  97.4044 151.2221 0003181 329.2677  30.8376 15.27675260121321
